PROXIMA II              
1 43696U 18088G   22080.50321407  .00005733  00000+0  22809-3 0  9998
2 43696  85.0355  11.5658 0020606  80.4115 279.9455 15.24827456186555
FACSAT-1                
1 43721U 18096C   22080.80627500  .00011760  00000+0  37469-3 0  9997
2 43721  97.3566 160.9346 0015017  11.5015 131.1653 15.32593071184538
CENTAURI-2              
1 43722U 18096D   22080.47672927  .00014460  00000+0  42974-3 0  9991
2 43722  97.3602 162.1648 0014183   8.8990 351.2502 15.34766865184569
INNOSAT-2               
1 43738U 18096V   22080.85958925  .00024752  00000+0  60168-3 0  9995
2 43738  97.3702 168.4363 0016257 359.2261 138.3513 15.40837160184984
SIRION PATHFINDER-2     
1 43759U 18099B   22080.82887452  .00000682  00000+0  65868-4 0  9993
2 43759  97.6297 149.8753 0013793 189.3488 170.7479 14.95970303179947
CORVUS BC4              
1 43767U 18099K   22080.48023251  .00001196  00000+0  11336-3 0  9994
2 43767  97.6260 148.1685 0011188 194.4630 165.6273 14.95375070179826
MOVE-II                 
1 43780U 18099Y   22080.47034307  .00003223  00000+0  28563-3 0  9995
2 43780  97.6329 150.0318 0012933 198.8731 161.2013 14.96864513179898
SPACEBEE-7              
1 43816U 18099BL  22080.45579765  .00002104  00000+0  18802-3 0  9997
2 43816  97.6336 150.7301 0013359 184.8919 175.2175 14.96904381179488
SPACEBEE-5              
1 43817U 18099BM  22080.75929017  .00005627  00000+0  46473-3 0  9998
2 43817  97.6493 153.3591 0012367 175.3322 184.8019 14.99303272179628
SPACEBEE-6              
1 43818U 18099BN  22080.46291669  .00003216  00000+0  27965-3 0  9999
2 43818  97.6374 151.4422 0013398 183.0287 177.0856 14.97601742179668
SHIELDS 1               
1 43850U 18104B   22080.53875794  .00002269  00000+0  95296-4 0  9997
2 43850  85.0249 110.5300 0012705 221.6335 138.3941 15.22788642181124
STF-1                   
1 43852U 18104D   22080.51382082  .00005368  00000+0  21545-3 0  9998
2 43852  85.0281 111.0546 0011336 234.9715 125.0465 15.24670961181139
ZACUBE-2                
1 43907U 18111AH  22080.76479517  .00003275  00000+0  12789-3 0  9999
2 43907  97.2034 330.2067 0021621  35.2743  37.7427 15.26370962179915
LUME 1                  
1 43908U 18111AJ  22080.44785002  .00006716  00000+0  24368-3 0  9993
2 43908  97.2034 331.0806 0020365  32.6932 327.5564 15.28446293179949
AOBA VELOX-IV           
1 43940U 19003J   22080.33601607  .00016839  00000+0  54142-3 0  9996
2 43940  97.1407 119.0646 0021774 101.9548 258.4136 15.32086098176618
MOVE-IIB                
1 44398U 19038N   22080.58994394  .00007738  00000+0  40090-3 0  9992
2 44398  97.6208  49.3400 0025001  74.3636 286.0351 15.16200948149712
SONATE                  
1 44400U 19038Q   22080.63049846  .00003778  00000+0  21232-3 0  9992
2 44400  97.6291  48.8601 0026123  77.0817 283.3335 15.13630502149646
LUCKY-7                 
1 44406U 19038W   22080.54348067  .00004099  00000+0  22581-3 0  9990
2 44406  97.6301  49.1814 0025308  75.5830 284.8208 15.14312023149658
BEESAT 9                
1 44412U 19038AC  22080.40395209  .00006271  00000+0  33596-3 0  9994
2 44412  97.6274  49.2071 0023165  80.2354 280.1492 15.15138420149352
JAISAT-1                
1 44419U 19038F   22080.41738151  .00005654  00000+0  29934-3 0  9994
2 44419  97.6281  49.9883 0022161  78.0454 282.3261 15.15619945149710
DUCHIFAT-3              
1 44854U 19089C   22080.88103629  .00002610  00000+0  21017-3 0  9993
2 44854  36.9653 259.2273 0008215 240.3262 119.6626 15.00336549124772
EYESAT-NANO             
1 44877U 19092E   22080.44954470  .00007218  00000+0  33444-3 0  9998
2 44877  97.4634 265.5675 0011400 306.8233  53.1956 15.20334609124988
ORBITAL FACTORY 2 (OF-2)
1 45113U 19071C   22080.55192541  .00013703  00000+0  33879-3 0  9992
2 45113  51.6386 130.3626 0008777 218.7364 141.2992 15.40722709119800
M2 PATHFINDER           
1 45727U 20037E   22080.48960034  .00000694  00000+0  74404-4 0  9994
2 45727  97.7258 257.5983 0012514 333.7907  26.2690 14.91721323 93717
NETSAT-4                
1 46504U 20068U   22080.50449026  .00002684  00000+0  20484-3 0  9997
2 46504  97.7145  20.5441 0011332 260.4777  99.5118 15.02815088 80833
NETSAT-3                
1 46505U 20068V   22080.38438069  .00002695  00000+0  20596-3 0  9995
2 46505  97.7142  20.3611 0010536 275.7019  84.3002 15.02764431 80829
NETSAT-1                
1 46506U 20068W   22080.53105077  .00001329  00000+0  10405-3 0  9994
2 46506  97.7165  20.4548 0008141 294.0886  65.9496 15.02717548 80841
NETSAT-2                
1 46507U 20068X   22080.53880080  .00001476  00000+0  11513-3 0  9993
2 46507  97.7171  20.4575 0006867 301.8954  58.1606 15.02702667 80792
SPOC                    
1 46921U 98067RR  22080.83243508  .00065425  00000+0  54633-3 0  9992
2 46921  51.6374  22.5160 0003471 104.9613 255.1768 15.69413150 78133
BOBCAT-1                
1 46922U 98067RS  22080.18346983  .00323380  49534-4  10723-2 0  9990
2 46922  51.6345  12.8930 0005584 145.8004 214.3362 15.89809057 78172
NEUTRON-1               
1 46923U 98067RT  22080.10573004  .00069696  00000+0  58740-3 0  9998
2 46923  51.6384  26.6712 0003732 103.2387 256.9027 15.69161737 78053
DESCENT                 
1 46927U 98067RX  22080.28364027  .00073613  00000+0  60307-3 0  9990
2 46927  51.6377  25.6056 0004333 110.9108 249.2354 15.69823513 77990
SAI-1 NANOCONNECT-2     
1 47701U 21015C   22080.64551748 -.00000073  00000+0  00000+0 0  9999
2 47701  97.4245 158.1225 0014666  42.9503 317.2964 15.25042067 58829
WARP-01                 
1 47924U 98067SA  22080.83851986  .00139258  00000+0  87966-3 0  9992
2 47924  51.6335  27.7465 0006260 107.1811 252.9874 15.75644976 58065
RSP-01                  
1 47925U 98067SB  22080.28159269  .00082288  00000+0  72684-3 0  9998
2 47925  51.6391  34.5967 0003110  93.4777 266.6575 15.67950533 57902
TAUSAT-1                
1 47926U 98067SC  22080.17543818  .00161884  00000+0  10202-2 0  9991
2 47926  51.6350  30.0918 0003423 108.7745 251.3627 15.75639126 57941
TSURU                   
1 47927U 98067SD  22080.29012177  .00068013  00000+0  66100-3 0  9993
2 47927  51.6383  36.1476 0002732  86.6508 273.4800 15.65660840 57884
STARS-EC                
1 47928U 98067SE  22080.28248372  .00240507  00000+0  12204-2 0  9996
2 47928  51.6341  29.2905 0006932 112.5362 247.6373 15.80229443 57955
MAYA-2                  
1 47929U 98067SF  22080.09549739  .00066718  00000+0  65104-3 0  9995
2 47929  51.6383  37.0972 0002595  83.4732 276.6559 15.65568002 57814
HIROGARI (OPUSAT-II)    
1 47930U 98067SG  22080.26509801  .00266479  00000+0  12523-2 0  9994
2 47930  51.6320  27.6702 0004812 126.1066 234.0382 15.81839008 57998
GUARANISAT-1            
1 47931U 98067SH  22080.40595779  .00065663  00000+0  63633-3 0  9991
2 47931  51.6396  35.4351 0002557  86.5189 273.6099 15.65747981 57903
SMOG-1                  
1 47964U 21022AJ  22080.73157803  .00004775  00000+0  30779-3 0  9994
2 47964  97.5387 342.9124 0020895  77.9130 282.4438 15.08611372 53651
MMSATS-1                
1 47976U 98067SJ  22080.51657030  .00015845  00000+0  24120-3 0  9996
2 47976  51.6447  45.1272 0003450  64.4999 295.6348 15.54683692 56564
BCCSAT-1                
1 48041U 21022AK  22080.67217196  .00004615  00000+0  30373-3 0  9999
2 48041  97.5391 342.5726 0017203  76.2113 284.1028 15.07915294 53607
RAMSAT                  
1 48850U 98067SL  22080.44983483  .00038765  00000+0  49151-3 0  9991
2 48850  51.6405  43.1917 0005618  92.7528 267.4107 15.59043633 43559
BD-28                   
1 48867U 98067SN  22080.11684507  .00044507  00000+0  53872-3 0  9994
2 48867  51.6382  43.9550 0004734 109.9688 250.1815 15.60208563 42267
MIR-SAT 1               
1 48868U 98067SP  22080.40095932  .00220002  00000+0  12467-2 0  9995
2 48868  51.6324  34.5634 0006840 118.5506 241.6183 15.77844577 42440
1998-067SR              
1 49272U 98067SR  22080.35515418  .00041640  00000+0  55485-3 0  9992
2 49272  51.6401  47.0411 0004262  22.2103 337.9073 15.57695421 25884
1998-067SS              
1 49273U 98067SS  22080.27798837  .00054294  00000+0  66501-3 0  9992
2 49273  51.6399  46.5281 0003936  31.0058 329.1167 15.59814673 25885
1998-067ST              
1 49274U 98067ST  22080.34938760  .00052698  00000+0  64889-3 0  9995
2 49274  51.6393  46.2539 0003805  31.1599 328.9619 15.59688507 25894
CUAVA-1                 
1 49275U 98067SU  22080.76016013  .00048977  00000+0  62044-3 0  9996
2 49275  51.6411  44.3469 0004576  38.9613  28.3436 15.58967346 25905
